{
  "norad_id": 49002,
  "name": "ONEWEB-0284",
  "history": [
    {
      "epoch": "2026-03-28T19:49:46.778304",
      "apogee_km": 1199.120736038727,
      "perigee_km": 1196.3888694546567,
      "latitude_deg": 11.516912006659437,
      "longitude_deg": -120.48135743988678,
      "semi_major_axis_km": 7575.891802746692,
      "eccentricity": 0.0001803,
      "inclination_deg": 87.9035,
      "raan_deg": 244.7457,
      "arg_perigee_deg": 87.8999,
      "mean_anomaly_deg": 272.2338,
      "mean_motion_rev_day": 13.16594743
    }
  ]
}