{"fetched_at":"2026-03-30T13:17:50Z","count":15418,"tles":[{"name":"ONEWEB-0284","line1":"1 49002U 21060AM  26087.82623586  .00000017  00000+0  12024-4 0  9997","line2":"2 49002  87.9035 244.7457 0001803  87.8999 272.2338 13.16594743229029","category":"Other"}]}